FENGYUN 1C DEB          
1 31492U 99025BWF 17341.40703998  .00000998  00000-0  42177-3 0  9990
2 31492  98.8794  47.4021 0142083 301.9897 115.2597 14.22608192546313
